<?xml version="1.0" encoding="UTF-8"?>
<ndm xmlns:xsi="http://www.w3.org/2001/XMLSchema-instance" xsi:noNamespaceSchemaLocation="https://sanaregistry.org/r/ndmxml_unqualified/ndmxml-2.0.0-master-2.0.xsd">
<omm id="CCSDS_OMM_VERS" version="2.0">
<header><CREATION_DATE/><ORIGINATOR/></header><body><segment><metadata><OBJECT_NAME>KUIPER-00027</OBJECT_NAME><OBJECT_ID>2025-088S</OBJECT_ID><CENTER_NAME>EARTH</CENTER_NAME><REF_FRAME>TEME</REF_FRAME><TIME_SYSTEM>UTC</TIME_SYSTEM><MEAN_ELEMENT_THEORY>SGP4</MEAN_ELEMENT_THEORY></metadata><data><meanElements><EPOCH>2025-07-28T04:49:45.840000</EPOCH><MEAN_MOTION>15.38202903</MEAN_MOTION><ECCENTRICITY>.0001731</ECCENTRICITY><INCLINATION>51.8723</INCLINATION><RA_OF_ASC_NODE>21.6961</RA_OF_ASC_NODE><ARG_OF_PERICENTER>81.5269</ARG_OF_PERICENTER><MEAN_ANOMALY>278.5914</MEAN_ANOMALY></meanElements><tleParameters><EPHEMERIS_TYPE>0</EPHEMERIS_TYPE><CLASSIFICATION_TYPE>U</CLASSIFICATION_TYPE><NORAD_CAT_ID>63740</NORAD_CAT_ID><ELEMENT_SET_NO>999</ELEMENT_SET_NO><REV_AT_EPOCH>1418</REV_AT_EPOCH><BSTAR>.43729E-3</BSTAR><MEAN_MOTION_DOT>.16356E-3</MEAN_MOTION_DOT><MEAN_MOTION_DDOT>0</MEAN_MOTION_DDOT></tleParameters></data></segment></body></omm>
<omm id="CCSDS_OMM_VERS" version="2.0">
<header><CREATION_DATE/><ORIGINATOR/></header><body><segment><metadata><OBJECT_NAME>KUIPER-00028</OBJECT_NAME><OBJECT_ID>2025-088T</OBJECT_ID><CENTER_NAME>EARTH</CENTER_NAME><REF_FRAME>TEME</REF_FRAME><TIME_SYSTEM>UTC</TIME_SYSTEM><MEAN_ELEMENT_THEORY>SGP4</MEAN_ELEMENT_THEORY></metadata><data><meanElements><EPOCH>2025-07-28T10:51:10.531872</EPOCH><MEAN_MOTION>15.38295765</MEAN_MOTION><ECCENTRICITY>.0001714</ECCENTRICITY><INCLINATION>51.8718</INCLINATION><RA_OF_ASC_NODE>20.3759</RA_OF_ASC_NODE><ARG_OF_PERICENTER>62.6222</ARG_OF_PERICENTER><MEAN_ANOMALY>297.4940</MEAN_ANOMALY></meanElements><tleParameters><EPHEMERIS_TYPE>0</EPHEMERIS_TYPE><CLASSIFICATION_TYPE>U</CLASSIFICATION_TYPE><NORAD_CAT_ID>63741</NORAD_CAT_ID><ELEMENT_SET_NO>999</ELEMENT_SET_NO><REV_AT_EPOCH>1463</REV_AT_EPOCH><BSTAR>.39728E-3</BSTAR><MEAN_MOTION_DOT>.14866E-3</MEAN_MOTION_DOT><MEAN_MOTION_DDOT>0</MEAN_MOTION_DDOT></tleParameters></data></segment></body></omm>
<omm id="CCSDS_OMM_VERS" version="2.0">
<header><CREATION_DATE/><ORIGINATOR/></header><body><segment><metadata><OBJECT_NAME>KUIPER-00029</OBJECT_NAME><OBJECT_ID>2025-088U</OBJECT_ID><CENTER_NAME>EARTH</CENTER_NAME><REF_FRAME>TEME</REF_FRAME><TIME_SYSTEM>UTC</TIME_SYSTEM><MEAN_ELEMENT_THEORY>SGP4</MEAN_ELEMENT_THEORY></metadata><data><meanElements><EPOCH>2025-07-27T19:01:47.661600</EPOCH><MEAN_MOTION>15.37088369</MEAN_MOTION><ECCENTRICITY>.0005037</ECCENTRICITY><INCLINATION>51.8700</INCLINATION><RA_OF_ASC_NODE>24.1854</RA_OF_ASC_NODE><ARG_OF_PERICENTER>80.0251</ARG_OF_PERICENTER><MEAN_ANOMALY>280.1304</MEAN_ANOMALY></meanElements><tleParameters><EPHEMERIS_TYPE>0</EPHEMERIS_TYPE><CLASSIFICATION_TYPE>U</CLASSIFICATION_TYPE><NORAD_CAT_ID>63742</NORAD_CAT_ID><ELEMENT_SET_NO>999</ELEMENT_SET_NO><REV_AT_EPOCH>1405</REV_AT_EPOCH><BSTAR>.4221E-3</BSTAR><MEAN_MOTION_DOT>.15205E-3</MEAN_MOTION_DOT><MEAN_MOTION_DDOT>0</MEAN_MOTION_DDOT></tleParameters></data></segment></body></omm>
<omm id="CCSDS_OMM_VERS" version="2.0">
<header><CREATION_DATE/><ORIGINATOR/></header><body><segment><metadata><OBJECT_NAME>KUIPER-00030</OBJECT_NAME><OBJECT_ID>2025-088V</OBJECT_ID><CENTER_NAME>EARTH</CENTER_NAME><REF_FRAME>TEME</REF_FRAME><TIME_SYSTEM>UTC</TIME_SYSTEM><MEAN_ELEMENT_THEORY>SGP4</MEAN_ELEMENT_THEORY></metadata><data><meanElements><EPOCH>2025-07-28T11:27:37.252800</EPOCH><MEAN_MOTION>15.12104272</MEAN_MOTION><ECCENTRICITY>.0012478</ECCENTRICITY><INCLINATION>51.8852</INCLINATION><RA_OF_ASC_NODE>25.0180</RA_OF_ASC_NODE><ARG_OF_PERICENTER>61.6417</ARG_OF_PERICENTER><MEAN_ANOMALY>298.5816</MEAN_ANOMALY></meanElements><tleParameters><EPHEMERIS_TYPE>0</EPHEMERIS_TYPE><CLASSIFICATION_TYPE>U</CLASSIFICATION_TYPE><NORAD_CAT_ID>63743</NORAD_CAT_ID><ELEMENT_SET_NO>999</ELEMENT_SET_NO><REV_AT_EPOCH>1438</REV_AT_EPOCH><BSTAR>.70128E-3</BSTAR><MEAN_MOTION_DOT>.11963E-3</MEAN_MOTION_DOT><MEAN_MOTION_DDOT>0</MEAN_MOTION_DDOT></tleParameters></data></segment></body></omm>
<omm id="CCSDS_OMM_VERS" version="2.0">
<header><CREATION_DATE/><ORIGINATOR/></header><body><segment><metadata><OBJECT_NAME>KUIPER-00031</OBJECT_NAME><OBJECT_ID>2025-088W</OBJECT_ID><CENTER_NAME>EARTH</CENTER_NAME><REF_FRAME>TEME</REF_FRAME><TIME_SYSTEM>UTC</TIME_SYSTEM><MEAN_ELEMENT_THEORY>SGP4</MEAN_ELEMENT_THEORY></metadata><data><meanElements><EPOCH>2025-07-27T18:16:07.865760</EPOCH><MEAN_MOTION>15.37791633</MEAN_MOTION><ECCENTRICITY>.0003987</ECCENTRICITY><INCLINATION>51.8705</INCLINATION><RA_OF_ASC_NODE>23.9844</RA_OF_ASC_NODE><ARG_OF_PERICENTER>75.3135</ARG_OF_PERICENTER><MEAN_ANOMALY>284.8294</MEAN_ANOMALY></meanElements><tleParameters><EPHEMERIS_TYPE>0</EPHEMERIS_TYPE><CLASSIFICATION_TYPE>U</CLASSIFICATION_TYPE><NORAD_CAT_ID>63744</NORAD_CAT_ID><ELEMENT_SET_NO>999</ELEMENT_SET_NO><REV_AT_EPOCH>1405</REV_AT_EPOCH><BSTAR>.42172E-3</BSTAR><MEAN_MOTION_DOT>.15547E-3</MEAN_MOTION_DOT><MEAN_MOTION_DDOT>0</MEAN_MOTION_DDOT></tleParameters></data></segment></body></omm>
<omm id="CCSDS_OMM_VERS" version="2.0">
<header><CREATION_DATE/><ORIGINATOR/></header><body><segment><metadata><OBJECT_NAME>KUIPER-00032</OBJECT_NAME><OBJECT_ID>2025-088X</OBJECT_ID><CENTER_NAME>EARTH</CENTER_NAME><REF_FRAME>TEME</REF_FRAME><TIME_SYSTEM>UTC</TIME_SYSTEM><MEAN_ELEMENT_THEORY>SGP4</MEAN_ELEMENT_THEORY></metadata><data><meanElements><EPOCH>2025-07-28T14:00:01.999872</EPOCH><MEAN_MOTION>15.33867075</MEAN_MOTION><ECCENTRICITY>.0004038</ECCENTRICITY><INCLINATION>51.8710</INCLINATION><RA_OF_ASC_NODE>20.2392</RA_OF_ASC_NODE><ARG_OF_PERICENTER>61.0494</ARG_OF_PERICENTER><MEAN_ANOMALY>51.6860</MEAN_ANOMALY></meanElements><tleParameters><EPHEMERIS_TYPE>0</EPHEMERIS_TYPE><CLASSIFICATION_TYPE>U</CLASSIFICATION_TYPE><NORAD_CAT_ID>63745</NORAD_CAT_ID><ELEMENT_SET_NO>999</ELEMENT_SET_NO><REV_AT_EPOCH>1517</REV_AT_EPOCH><BSTAR>-.11224E-1</BSTAR><MEAN_MOTION_DOT>-.356617E-2</MEAN_MOTION_DOT><MEAN_MOTION_DDOT>0</MEAN_MOTION_DDOT></tleParameters></data></segment></body></omm>
<omm id="CCSDS_OMM_VERS" version="2.0">
<header><CREATION_DATE/><ORIGINATOR/></header><body><segment><metadata><OBJECT_NAME>KUIPER-00033</OBJECT_NAME><OBJECT_ID>2025-088Y</OBJECT_ID><CENTER_NAME>EARTH</CENTER_NAME><REF_FRAME>TEME</REF_FRAME><TIME_SYSTEM>UTC</TIME_SYSTEM><MEAN_ELEMENT_THEORY>SGP4</MEAN_ELEMENT_THEORY></metadata><data><meanElements><EPOCH>2025-07-27T18:04:34.611168</EPOCH><MEAN_MOTION>14.79805413</MEAN_MOTION><ECCENTRICITY>.0003296</ECCENTRICITY><INCLINATION>51.9012</INCLINATION><RA_OF_ASC_NODE>41.2682</RA_OF_ASC_NODE><ARG_OF_PERICENTER>139.9896</ARG_OF_PERICENTER><MEAN_ANOMALY>220.1310</MEAN_ANOMALY></meanElements><tleParameters><EPHEMERIS_TYPE>0</EPHEMERIS_TYPE><CLASSIFICATION_TYPE>U</CLASSIFICATION_TYPE><NORAD_CAT_ID>63746</NORAD_CAT_ID><ELEMENT_SET_NO>999</ELEMENT_SET_NO><REV_AT_EPOCH>1429</REV_AT_EPOCH><BSTAR>.29783E-3</BSTAR><MEAN_MOTION_DOT>.2043E-4</MEAN_MOTION_DOT><MEAN_MOTION_DDOT>0</MEAN_MOTION_DDOT></tleParameters></data></segment></body></omm>
<omm id="CCSDS_OMM_VERS" version="2.0">
<header><CREATION_DATE/><ORIGINATOR/></header><body><segment><metadata><OBJECT_NAME>KUIPER-00034</OBJECT_NAME><OBJECT_ID>2025-088Z</OBJECT_ID><CENTER_NAME>EARTH</CENTER_NAME><REF_FRAME>TEME</REF_FRAME><TIME_SYSTEM>UTC</TIME_SYSTEM><MEAN_ELEMENT_THEORY>SGP4</MEAN_ELEMENT_THEORY></metadata><data><meanElements><EPOCH>2025-07-27T17:49:00.512256</EPOCH><MEAN_MOTION>15.37927982</MEAN_MOTION><ECCENTRICITY>.0002135</ECCENTRICITY><INCLINATION>51.8724</INCLINATION><RA_OF_ASC_NODE>23.8693</RA_OF_ASC_NODE><ARG_OF_PERICENTER>89.7397</ARG_OF_PERICENTER><MEAN_ANOMALY>270.3835</MEAN_ANOMALY></meanElements><tleParameters><EPHEMERIS_TYPE>0</EPHEMERIS_TYPE><CLASSIFICATION_TYPE>U</CLASSIFICATION_TYPE><NORAD_CAT_ID>63747</NORAD_CAT_ID><ELEMENT_SET_NO>999</ELEMENT_SET_NO><REV_AT_EPOCH>1421</REV_AT_EPOCH><BSTAR>.38549E-3</BSTAR><MEAN_MOTION_DOT>.14238E-3</MEAN_MOTION_DOT><MEAN_MOTION_DDOT>0</MEAN_MOTION_DDOT></tleParameters></data></segment></body></omm>

</ndm>
