KUIPER-00027            
1 63740U 25088S   25209.20122500  .00016356  00000+0  43729-3 0  9991
2 63740  51.8723  21.6961 0001731  81.5269 278.5914 15.38202903 14189
KUIPER-00028            
1 63741U 25088T   25209.45220523  .00014866  00000+0  39728-3 0  9991
2 63741  51.8718  20.3759 0001714  62.6222 297.4940 15.38295765 14632
KUIPER-00029            
1 63742U 25088U   25208.79291275  .00015205  00000+0  42210-3 0  9998
2 63742  51.8700  24.1854 0005037  80.0251 280.1304 15.37088369 14058
KUIPER-00030            
1 63743U 25088V   25209.47751450  .00011963  00000+0  70128-3 0  9997
2 63743  51.8852  25.0180 0012478  61.6417 298.5816 15.12104272 14387
KUIPER-00031            
1 63744U 25088W   25208.76120215  .00015547  00000+0  42172-3 0  9998
2 63744  51.8705  23.9844 0003987  75.3135 284.8294 15.37791633 14055
KUIPER-00032            
1 63745U 25088X   25209.58335648 -.00356617  00000+0 -11224-1 0  9998
2 63745  51.8710  20.2392 0004038  61.0494  51.6860 15.33867075 15171
KUIPER-00033            
1 63746U 25088Y   25208.75317837  .00002043  00000+0  29783-3 0  9997
2 63746  51.9012  41.2682 0003296 139.9896 220.1310 14.79805413 14291
KUIPER-00034            
1 63747U 25088Z   25208.74236704  .00014238  00000+0  38549-3 0  9999
2 63747  51.8724  23.8693 0002135  89.7397 270.3835 15.37927982 14210
